RASSVET-3 9             
1 68368U 26061J   26110.22351334  .00090156  17727-5  27417-3 0  9993
2 68368  82.2971  77.5134 0019603 327.4404  32.5658 15.91565255  4379
RASSVET-3 10            
1 68369U 26061K   26110.22873937  .00090990  18342-5  27308-3 0  9991
2 68369  82.2973  77.5223 0020424 327.5840  32.4176 15.91790889  4376
RASSVET-3 11            
1 68370U 26061L   26110.22811954  .00089552  17417-5  26864-3 0  9994
2 68370  82.2976  77.5213 0020176 327.3382  32.6641 15.91808304  4374
RASSVET-3 12            
1 68371U 26061M   26110.22515962  .00094648  20939-5  27763-3 0  9999
2 68371  82.2970  77.5163 0019894 327.2812  32.7227 15.92254546  4370
RASSVET-3 13            
1 68372U 26061N   26110.22692291  .00056800  17079-7  18448-3 0  9992
2 68372  82.2968  77.5179 0019007 328.5510  31.4623 15.90256434  4372
RASSVET-3 14            
1 68373U 26061P   26110.16158336  .00328535  38369-4  10742-2 0  9990
2 68373  82.2955  77.5828 0019325 332.0354  27.9878 15.90224010  4365
RASSVET-3 15            
1 68374U 26061Q   26110.22552480  .00078979  10695-5  25639-3 0  9995
2 68374  82.2971  77.5163 0018453 327.8521  32.1625 15.90318996  4371
RASSVET-3 16            
1 68375U 26061R   26110.21433631  .00051664  00000+0  23743-3 0  9990
2 68375  82.2956  77.6608 0017899 337.6810  22.3677 15.83172352  4366
SUPERVIEW NEO-2 OBJECT A
1 68377U 26062A   26110.14210197  .00001961  00000+0  94982-4 0  9994
2 68377  97.4407 118.2769 0001638  81.9117 278.2304 15.19719041  3831
SUPERVIEW NEO-2 OBJECT B
1 68378U 26062B   26108.29848146  .00001805  00000+0  87683-4 0  9996
2 68378  97.4403 116.4568 0001721  86.6460 273.4972 15.19725530  3558
STARLINK-36296          
1 68380U 26063A   26109.00002315 -.00127916  00000+0 -86934-3 0  9991
2 68380  97.2859 250.9333 0001227  92.7806  46.0139 15.75197508  2133
STARLINK-37111          
1 68381U 26063B   26110.00003472  .00030589  00000+0  20537-3 0  9993
2 68381  97.2866 251.8160 0001263  79.0667 306.5727 15.75173247  5104
STARLINK-36946          
1 68382U 26063C   26107.95454174  .00160717  00000+0  82248-3 0  9997
2 68382  97.2850 249.6875 0001434  75.1750 284.9677 15.80867690  3824
STARLINK-37121          
1 68383U 26063D   26108.00004630 -.00165403  00000+0 -11266-2 0  9993
2 68383  97.2858 249.7065 0001263  84.1834 103.8642 15.75252071  4780
STARLINK-37137          
1 68384U 26063E   26107.92347156  .00108874  00000+0  72057-3 0  9990
2 68384  97.2845 249.5766 0001459  82.9330 277.2101 15.75220922  3816
